{
  "type": "FeatureCollection",
  "features": [
    {
      "type": "Feature",
      "properties": {
        "norad_id": 35660,
        "name": "COSMOS 2251 DEB",
        "group": "cosmos-2251-debris",
        "lat": -33.60294552808248,
        "lon": -58.424035385681165,
        "alt_km": 721.892364413864,
        "timestamp": "2025-12-24T18:55:56.468325+00:00",
        "meta_object_name": "COSMOS 2251 DEB",
        "meta_object_id": "1993-036APB",
        "meta_epoch": "2025-12-23T17:25:27.080832",
        "meta_mean_motion": 14.49964406,
        "meta_eccentricity": 0.00185636,
        "meta_inclination": 74.0421,
        "meta_ra_of_asc_node": 112.6097,
        "meta_arg_of_pericenter": 260.1497,
        "meta_mean_anomaly": 169.4034,
        "meta_ephemeris_type": 0,
        "meta_classification_type": "U",
        "meta_norad_cat_id": 35660,
        "meta_element_set_no": 999,
        "meta_rev_at_epoch": 66030,
        "meta_bstar": 0.0004829615,
        "meta_mean_motion_dot": 1.846e-05,
        "meta_mean_motion_ddot": 0,
        "tle_line1": "1 35660U 93036APB 25357.72600788  .00001846  00000+0  48296-3 0  9991",
        "tle_line2": "2 35660  74.0421 112.6097 0018563 260.1497 169.4034 14.49964406660307"
      },
      "geometry": {
        "type": "Point",
        "coordinates": [
          -58.424035385681165,
          -33.60294552808248
        ]
      }
    },
    {
      "type": "Feature",
      "properties": {
        "norad_id": 35661,
        "name": "COSMOS 2251 DEB",
        "group": "cosmos-2251-debris",
        "lat": 2.3908321366295358,
        "lon": 56.396777953560004,
        "alt_km": 665.0341362411182,
        "timestamp": "2025-12-24T18:55:56.468335+00:00",
        "meta_object_name": "COSMOS 2251 DEB",
        "meta_object_id": "1993-036APC",
        "meta_epoch": "2025-12-23T10:37:17.617728",
        "meta_mean_motion": 14.86718624,
        "meta_eccentricity": 0.00868669,
        "meta_inclination": 74.0127,
        "meta_ra_of_asc_node": 58.3939,
        "meta_arg_of_pericenter": 159.8507,
        "meta_mean_anomaly": 200.6139,
        "meta_ephemeris_type": 0,
        "meta_classification_type": "U",
        "meta_norad_cat_id": 35661,
        "meta_element_set_no": 999,
        "meta_rev_at_epoch": 88027,
        "meta_bstar": 0.00075396446,
        "meta_mean_motion_dot": 7.154e-05,
        "meta_mean_motion_ddot": 0,
        "tle_line1": "1 35661U 93036APC 25357.44256502  .00007154  00000+0  75396-3 0  9991",
        "tle_line2": "2 35661  74.0127  58.3939 0086866 159.8507 200.6139 14.86718624880273"
      },
      "geometry": {
        "type": "Point",
        "coordinates": [
          56.396777953560004,
          2.3908321366295358
        ]
      }
    },
    {
      "type": "Feature",
      "properties": {
        "norad_id": 35663,
        "name": "COSMOS 2251 DEB",
        "group": "cosmos-2251-debris",
        "lat": 58.965274813762015,
        "lon": 129.88418016702335,
        "alt_km": 670.038145442627,
        "timestamp": "2025-12-24T18:55:56.468345+00:00",
        "meta_object_name": "COSMOS 2251 DEB",
        "meta_object_id": "1993-036APE",
        "meta_epoch": "2025-12-19T23:59:07.553472",
        "meta_mean_motion": 14.65779868,
        "meta_eccentricity": 0.00057705,
        "meta_inclination": 74.0195,
        "meta_ra_of_asc_node": 110.6712,
        "meta_arg_of_pericenter": 187.908,
        "meta_mean_anomaly": 172.1999,
        "meta_ephemeris_type": 0,
        "meta_classification_type": "U",
        "meta_norad_cat_id": 35663,
        "meta_element_set_no": 999,
        "meta_rev_at_epoch": 73488,
        "meta_bstar": 0.0009843987,
        "meta_mean_motion_dot": 5.342e-05,
        "meta_mean_motion_ddot": 0,
        "tle_line1": "1 35663U 93036APE 25353.99939298  .00005342  00000+0  98440-3 0  9991",
        "tle_line2": "2 35663  74.0195 110.6712 0005770 187.9080 172.1999 14.65779868734880"
      },
      "geometry": {
        "type": "Point",
        "coordinates": [
          129.88418016702335,
          58.965274813762015
        ]
      }
    },
    {
      "type": "Feature",
      "properties": {
        "norad_id": 35667,
        "name": "COSMOS 2251 DEB",
        "group": "cosmos-2251-debris",
        "lat": -43.38140447050725,
        "lon": -47.18522053076206,
        "alt_km": 690.2092411820604,
        "timestamp": "2025-12-24T18:55:56.468355+00:00",
        "meta_object_name": "COSMOS 2251 DEB",
        "meta_object_id": "1993-036APJ",
        "meta_epoch": "2025-12-24T01:27:36.306432",
        "meta_mean_motion": 14.60135213,
        "meta_eccentricity": 0.00189616,
        "meta_inclination": 74.0566,
        "meta_ra_of_asc_node": 118.5285,
        "meta_arg_of_pericenter": 178.1022,
        "meta_mean_anomaly": 182.022,
        "meta_ephemeris_type": 0,
        "meta_classification_type": "U",
        "meta_norad_cat_id": 35667,
        "meta_element_set_no": 999,
        "meta_rev_at_epoch": 70968,
        "meta_bstar": 0.0011760154,
        "meta_mean_motion_dot": 5.65e-05,
        "meta_mean_motion_ddot": 0,
        "tle_line1": "1 35667U 93036APJ 25358.06083688  .00005650  00000+0  11760-2 0  9992",
        "tle_line2": "2 35667  74.0566 118.5285 0018961 178.1022 182.0220 14.60135213709684"
      },
      "geometry": {
        "type": "Point",
        "coordinates": [
          -47.18522053076206,
          -43.38140447050725
        ]
      }
    },
    {
      "type": "Feature",
      "properties": {
        "norad_id": 35668,
        "name": "COSMOS 2251 DEB",
        "group": "cosmos-2251-debris",
        "lat": 29.768315481087065,
        "lon": 7.975361819793616,
        "alt_km": 729.7623509073865,
        "timestamp": "2025-12-24T18:55:56.468366+00:00",
        "meta_object_name": "COSMOS 2251 DEB",
        "meta_object_id": "1993-036APK",
        "meta_epoch": "2025-12-22T20:19:44.665536",
        "meta_mean_motion": 14.64012631,
        "meta_eccentricity": 0.00834744,
        "meta_inclination": 74.0435,
        "meta_ra_of_asc_node": 201.1204,
        "meta_arg_of_pericenter": 303.9245,
        "meta_mean_anomaly": 55.4004,
        "meta_ephemeris_type": 0,
        "meta_classification_type": "U",
        "meta_norad_cat_id": 35668,
        "meta_element_set_no": 999,
        "meta_rev_at_epoch": 87795,
        "meta_bstar": 0.0001903257,
        "meta_mean_motion_dot": 1.015e-05,
        "meta_mean_motion_ddot": 0,
        "tle_line1": "1 35668U 93036APK 25356.84704474  .00001015  00000+0  19033-3 0  9993",
        "tle_line2": "2 35668  74.0435 201.1204 0083474 303.9245  55.4004 14.64012631877957"
      },
      "geometry": {
        "type": "Point",
        "coordinates": [
          7.975361819793616,
          29.768315481087065
        ]
      }
    },
    {
      "type": "Feature",
      "properties": {
        "norad_id": 35669,
        "name": "COSMOS 2251 DEB",
        "group": "cosmos-2251-debris",
        "lat": 5.968007412385453,
        "lon": -41.996834851737795,
        "alt_km": 966.6238605111666,
        "timestamp": "2025-12-24T18:55:56.468376+00:00",
        "meta_object_name": "COSMOS 2251 DEB",
        "meta_object_id": "1993-036APL",
        "meta_epoch": "2025-12-20T02:35:15.805248",
        "meta_mean_motion": 13.57168765,
        "meta_eccentricity": 0.03877863,
        "meta_inclination": 73.8603,
        "meta_ra_of_asc_node": 147.3718,
        "meta_arg_of_pericenter": 257.91,
        "meta_mean_anomaly": 97.8317,
        "meta_ephemeris_type": 0,
        "meta_classification_type": "U",
        "meta_norad_cat_id": 35669,
        "meta_element_set_no": 999,
        "meta_rev_at_epoch": 60889,
        "meta_bstar": 0.00066721827,
        "meta_mean_motion_dot": 7.5e-06,
        "meta_mean_motion_ddot": 0,
        "tle_line1": "1 35669U 93036APL 25354.10782182  .00000750  00000+0  66722-3 0  9995",
        "tle_line2": "2 35669  73.8603 147.3718 0387786 257.9100  97.8317 13.57168765608897"
      },
      "geometry": {
        "type": "Point",
        "coordinates": [
          -41.996834851737795,
          5.968007412385453
        ]
      }
    },
    {
      "type": "Feature",
      "properties": {
        "norad_id": 35670,
        "name": "COSMOS 2251 DEB",
        "group": "cosmos-2251-debris",
        "lat": -56.91460444363596,
        "lon": 13.688555516012924,
        "alt_km": 577.5328363147337,
        "timestamp": "2025-12-24T18:55:56.468387+00:00",
        "meta_object_name": "COSMOS 2251 DEB",
        "meta_object_id": "1993-036APM",
        "meta_epoch": "2025-12-22T20:36:05.670144",
        "meta_mean_motion": 14.94150162,
        "meta_eccentricity": 0.0038413,
        "meta_inclination": 73.8936,
        "meta_ra_of_asc_node": 43.936,
        "meta_arg_of_pericenter": 2.2242,
        "meta_mean_anomaly": 357.9104,
        "meta_ephemeris_type": 0,
        "meta_classification_type": "U",
        "meta_norad_cat_id": 35670,
        "meta_element_set_no": 999,
        "meta_rev_at_epoch": 87878,
        "meta_bstar": 0.0012423,
        "meta_mean_motion_dot": 0.00013477,
        "meta_mean_motion_ddot": 0,
        "tle_line1": "1 35670U 93036APM 25356.85839896  .00013477  00000+0  12423-2 0  9994",
        "tle_line2": "2 35670  73.8936  43.9360 0038413   2.2242 357.9104 14.94150162878785"
      },
      "geometry": {
        "type": "Point",
        "coordinates": [
          13.688555516012924,
          -56.91460444363596
        ]
      }
    }
  ]
}